{
  "norad_id": 59680,
  "name": "2024-085D",
  "history": [
    {
      "epoch": "2026-03-28T22:33:34.852608Z",
      "apogee_km": 473.2180312754672,
      "perigee_km": 455.0263798804144,
      "latitude_deg": 4.3176334612086155e-05,
      "longitude_deg": -0.5131538529076887,
      "height_km": 458.32370570296115,
      "semi_major_axis_km": 6842.2592055779405,
      "eccentricity": 0.00132936,
      "inclination_deg": 97.329,
      "raan_deg": 164.2353,
      "arg_perigee_deg": 348.4414,
      "mean_anomaly_deg": 11.6522,
      "mean_motion_rev_day": 15.33922713
    },
    {
      "epoch": "2026-03-29T04:49:19.784352Z",
      "apogee_km": 473.18648964977456,
      "perigee_km": 454.99710861016774,
      "latitude_deg": -3.7275123788692585e-05,
      "longitude_deg": -94.44875004153984,
      "height_km": 458.32687833597686,
      "semi_major_axis_km": 6842.228799129971,
      "eccentricity": 0.0013292,
      "inclination_deg": 97.329,
      "raan_deg": 164.4941,
      "arg_perigee_deg": 347.4694,
      "mean_anomaly_deg": 12.6216,
      "mean_motion_rev_day": 15.33932938
    },
    {
      "epoch": "2026-03-30T04:18:22.090176Z",
      "apogee_km": 473.01395360496645,
      "perigee_km": 454.9562249868977,
      "latitude_deg": 6.139241481971303e-05,
      "longitude_deg": -86.70192218334434,
      "height_km": 458.4248191565438,
      "semi_major_axis_km": 6842.122089295932,
      "eccentricity": 0.0013196,
      "inclination_deg": 97.3289,
      "raan_deg": 165.465,
      "arg_perigee_deg": 343.8898,
      "mean_anomaly_deg": 16.1924,
      "mean_motion_rev_day": 15.33968823
    },
    {
      "epoch": "2026-03-30T05:52:18.184224Z",
      "apogee_km": 473.00523980594426,
      "perigee_km": 454.95723715884014,
      "latitude_deg": -3.381530660641178e-07,
      "longitude_deg": -110.18513556738169,
      "height_km": 458.43545499027084,
      "semi_major_axis_km": 6842.1182384823915,
      "eccentricity": 0.00131889,
      "inclination_deg": 97.3289,
      "raan_deg": 165.5298,
      "arg_perigee_deg": 343.668,
      "mean_anomaly_deg": 16.4136,
      "mean_motion_rev_day": 15.33970118
    },
    {
      "epoch": "2026-03-30T15:15:54.561888Z",
      "apogee_km": 472.937298823299,
      "perigee_km": 454.94796621189107,
      "latitude_deg": 3.0356157487948347e-05,
      "longitude_deg": 108.91601255841152,
      "height_km": 458.4926708858853,
      "semi_major_axis_km": 6842.079632517594,
      "eccentricity": 0.00131461,
      "inclination_deg": 97.329,
      "raan_deg": 165.9183,
      "arg_perigee_deg": 342.206,
      "mean_anomaly_deg": 17.8721,
      "mean_motion_rev_day": 15.33983101
    },
    {
      "epoch": "2026-03-30T23:05:34.644192Z",
      "apogee_km": 472.88739292930677,
      "perigee_km": 454.9296234476042,
      "latitude_deg": 6.325152347856211e-05,
      "longitude_deg": -8.498877221112231,
      "height_km": 458.5400157236065,
      "semi_major_axis_km": 6842.045508188455,
      "eccentricity": 0.00131231,
      "inclination_deg": 97.3289,
      "raan_deg": 166.2419,
      "arg_perigee_deg": 340.8729,
      "mean_anomaly_deg": 19.202,
      "mean_motion_rev_day": 15.33994577
    },
    {
      "epoch": "2026-03-31T21:00:37.868256Z",
      "apogee_km": 472.75769764251163,
      "perigee_km": 454.8865004757681,
      "latitude_deg": 1.662257439682141e-05,
      "longitude_deg": 22.743974118870636,
      "height_km": 458.6913009452569,
      "semi_major_axis_km": 6841.95909905914,
      "eccentricity": 0.001306,
      "inclination_deg": 97.3287,
      "raan_deg": 167.1483,
      "arg_perigee_deg": 337.3464,
      "mean_anomaly_deg": 22.7201,
      "mean_motion_rev_day": 15.34023637
    },
    {
      "epoch": "2026-04-01T20:29:35.484288Z",
      "apogee_km": 472.62335461946714,
      "perigee_km": 454.8645683957784,
      "latitude_deg": 3.226399188986131e-06,
      "longitude_deg": 30.510611225486883,
      "height_km": 458.9042304332809,
      "semi_major_axis_km": 6841.8809615076225,
      "eccentricity": 0.0012978,
      "inclination_deg": 97.3284,
      "raan_deg": 168.1194,
      "arg_perigee_deg": 333.6353,
      "mean_anomaly_deg": 26.4228,
      "mean_motion_rev_day": 15.34049916
    },
    {
      "epoch": "2026-04-02T19:58:31.279008Z",
      "apogee_km": 472.4344748421736,
      "perigee_km": 454.81693587587324,
      "latitude_deg": 3.808654709557454e-05,
      "longitude_deg": 38.28495127157817,
      "height_km": 459.12845603518065,
      "semi_major_axis_km": 6841.762705359023,
      "eccentricity": 0.0012875,
      "inclination_deg": 97.328,
      "raan_deg": 169.0906,
      "arg_perigee_deg": 329.8094,
      "mean_anomaly_deg": 30.2406,
      "mean_motion_rev_day": 15.34089689
    },
    {
      "epoch": "2026-04-02T23:06:22.527936Z",
      "apogee_km": 472.4113140573527,
      "perigee_km": 454.7875483494872,
      "latitude_deg": 6.587713753515464e-05,
      "longitude_deg": -8.677570987291835,
      "height_km": 459.13472502026076,
      "semi_major_axis_km": 6841.73643120342,
      "eccentricity": 0.00128796,
      "inclination_deg": 97.328,
      "raan_deg": 169.2202,
      "arg_perigee_deg": 329.3578,
      "mean_anomaly_deg": 30.6912,
      "mean_motion_rev_day": 15.34098526
    },
    {
      "epoch": "2026-04-03T21:01:20.095392Z",
      "apogee_km": 472.2093311957251,
      "perigee_km": 454.74542633249257,
      "latitude_deg": -4.937779999258437e-06,
      "longitude_deg": 22.588915862583967,
      "height_km": 459.3668672650834,
      "semi_major_axis_km": 6841.614378764109,
      "eccentricity": 0.0012763,
      "inclination_deg": 97.3277,
      "raan_deg": 170.1266,
      "arg_perigee_deg": 325.8666,
      "mean_anomaly_deg": 34.1755,
      "mean_motion_rev_day": 15.34139578
    },
    {
      "epoch": "2026-04-04T20:30:10.956672Z",
      "apogee_km": 472.0832169922878,
      "perigee_km": 454.66063036724427,
      "latitude_deg": 2.5604389243683537e-05,
      "longitude_deg": 30.383767158901936,
      "height_km": 459.6193659920855,
      "semi_major_axis_km": 6841.508923679766,
      "eccentricity": 0.0012733,
      "inclination_deg": 97.3274,
      "raan_deg": 171.0977,
      "arg_perigee_deg": 322.0601,
      "mean_anomaly_deg": 37.9744,
      "mean_motion_rev_day": 15.34175049
    },
    {
      "epoch": "2026-04-05T15:17:14.360928Z",
      "apogee_km": 471.9758920614322,
      "perigee_km": 454.61766944423107,
      "latitude_deg": 5.39244840232202e-05,
      "longitude_deg": 108.62523493341031,
      "height_km": 459.86330346072776,
      "semi_major_axis_km": 6841.433780752832,
      "eccentricity": 0.00126861,
      "inclination_deg": 97.3272,
      "raan_deg": 171.8748,
      "arg_perigee_deg": 319.0123,
      "mean_anomaly_deg": 41.0166,
      "mean_motion_rev_day": 15.34200325
    },
    {
      "epoch": "2026-04-05T19:59:00.056256Z",
      "apogee_km": 471.95223982162497,
      "perigee_km": 454.6024130897331,
      "latitude_deg": 4.123990005711132e-06,
      "longitude_deg": 38.186084796505064,
      "height_km": 459.92058492592685,
      "semi_major_axis_km": 6841.414326455679,
      "eccentricity": 0.001268,
      "inclination_deg": 97.3271,
      "raan_deg": 172.0689,
      "arg_perigee_deg": 318.2776,
      "mean_anomaly_deg": 41.7499,
      "mean_motion_rev_day": 15.34206869
    },
    {
      "epoch": "2026-04-06T06:56:26.473056Z",
      "apogee_km": 471.88549638569657,
      "perigee_km": 454.5970598217982,
      "latitude_deg": -2.8328303410788048e-05,
      "longitude_deg": -126.17058395271535,
      "height_km": 460.0953607465705,
      "semi_major_axis_km": 6841.378278103747,
      "eccentricity": 0.00126352,
      "inclination_deg": 97.327,
      "raan_deg": 172.5223,
      "arg_perigee_deg": 316.4403,
      "mean_anomaly_deg": 43.5841,
      "mean_motion_rev_day": 15.34218995
    },
    {
      "epoch": "2026-04-07T14:14:48.728256Z",
      "apogee_km": 471.73694060430716,
      "perigee_km": 454.54836230561887,
      "latitude_deg": 8.034747570339714e-06,
      "longitude_deg": 124.24597868389999,
      "height_km": 460.5875631784215,
      "semi_major_axis_km": 6841.279651454963,
      "eccentricity": 0.00125624,
      "inclination_deg": 97.3268,
      "raan_deg": 173.8173,
      "arg_perigee_deg": 311.3122,
      "mean_anomaly_deg": 48.7039,
      "mean_motion_rev_day": 15.34252172
    },
    {
      "epoch": "2026-04-07T20:30:28.907136Z",
      "apogee_km": 471.7172199711349,
      "perigee_km": 454.53197084347175,
      "latitude_deg": -6.388336232592135e-05,
      "longitude_deg": 30.330338377623324,
      "height_km": 460.68487145099147,
      "semi_major_axis_km": 6841.2615954073035,
      "eccentricity": 0.001256,
      "inclination_deg": 97.3267,
      "raan_deg": 174.0762,
      "arg_perigee_deg": 310.3061,
      "mean_anomaly_deg": 49.7083,
      "mean_motion_rev_day": 15.34258246
    },
    {
      "epoch": "2026-04-08T15:17:28.885632Z",
      "apogee_km": 471.643239455052,
      "perigee_km": 454.5046378115885,
      "latitude_deg": 6.042836518262207e-05,
      "longitude_deg": 108.58610584450192,
      "height_km": 461.00854867535503,
      "semi_major_axis_km": 6841.21093863332,
      "eccentricity": 0.0012526,
      "inclination_deg": 97.3267,
      "raan_deg": 174.8533,
      "arg_perigee_deg": 307.2265,
      "mean_anomaly_deg": 52.7835,
      "mean_motion_rev_day": 15.34275287
    },
    {
      "epoch": "2026-04-09T21:01:52.280256Z",
      "apogee_km": 471.4894465184989,
      "perigee_km": 454.48514796527525,
      "latitude_deg": 1.4199597254383453e-05,
      "longitude_deg": 22.497758991969143,
      "height_km": 461.58032776522214,
      "semi_major_axis_km": 6841.124297241887,
      "eccentricity": 0.0012428,
      "inclination_deg": 97.3267,
      "raan_deg": 176.0838,
      "arg_perigee_deg": 302.1631,
      "mean_anomaly_deg": 57.8406,
      "mean_motion_rev_day": 15.34304434
    }
  ]
}